start=new Date('2022-12-08T00:00:00.000Z').valueOf();
sats=[{"FILE":"3684212","RA_OF_ASC_NODE":"90.8829","ELEMENT_SET_NO":"999","TLE_LINE2":"2 48434  53.0570  90.8829 0001839 110.0166 250.1021 15.06397344 87892","OBJECT_NAME":"STARLINK-2692","DECAY_DATE":null,"SEMIMAJOR_AXIS":"6925.357","APOAPSIS":"548.495","NORAD_CAT_ID":"48434","MEAN_MOTION":"15.06397344","COUNTRY_CODE":"US","TIME_SYSTEM":"UTC","MEAN_ELEMENT_THEORY":"SGP4","MEAN_MOTION_DOT":"-0.00000775","EPOCH":"2022-12-07T13:21:04.561056","BSTAR":"-0.00003313400000","PERIAPSIS":"545.948","REV_AT_EPOCH":"8789","GP_ID":"219740379","EPHEMERIS_TYPE":"0","PERIOD":"95.592","RCS_SIZE":"LARGE","SITE":"AFETR","CLASSIFICATION_TYPE":"U","ECCENTRICITY":"0.00018390","OBJECT_ID":"2021-040G","MEAN_MOTION_DDOT":"0.0000000000000","TLE_LINE1":"1 48434U 21040G   22341.55630279 -.00000775  00000-0 -33134-4 0  9998","REF_FRAME":"TEME","CENTER_NAME":"EARTH","LAUNCH_DATE":"2021-05-09","INCLINATION":"53.0570","ARG_OF_PERICENTER":"110.0166","MEAN_ANOMALY":"250.1021","OBJECT_TYPE":"PAYLOAD"},{"GP_ID":"219740628","EPHEMERIS_TYPE":"0","PERIOD":"95.592","MEAN_MOTION_DOT":"-0.00001054","EPOCH":"2022-12-07T15:05:48.873696","MEAN_ELEMENT_THEORY":"SGP4","PERIAPSIS":"546.056","REV_AT_EPOCH":"8776","BSTAR":"-0.00005189700000","MEAN_MOTION":"15.06396732","APOAPSIS":"548.391","NORAD_CAT_ID":"48435","COUNTRY_CODE":"US","TIME_SYSTEM":"UTC","RA_OF_ASC_NODE":"100.0502","ELEMENT_SET_NO":"999","TLE_LINE2":"2 48435  53.0558 100.0502 0001686  56.6889 303.4262 15.06396732 87763","FILE":"3684212","SEMIMAJOR_AXIS":"6925.359","OBJECT_NAME":"STARLINK-2633","DECAY_DATE":null,"OBJECT_TYPE":"PAYLOAD","ARG_OF_PERICENTER":"56.6889","MEAN_ANOMALY":"303.4262","INCLINATION":"53.0558","TLE_LINE1":"1 48435U 21040H   22341.62903789 -.00001054  00000-0 -51897-4 0  9993","CENTER_NAME":"EARTH","LAUNCH_DATE":"2021-05-09","REF_FRAME":"TEME","SITE":"AFETR","RCS_SIZE":"LARGE","OBJECT_ID":"2021-040H","MEAN_MOTION_DDOT":"0.0000000000000","CLASSIFICATION_TYPE":"U","ECCENTRICITY":"0.00016860"},{"ECCENTRICITY":"0.00016760","CLASSIFICATION_TYPE":"U","MEAN_MOTION_DDOT":"0.0000000000000","OBJECT_ID":"2021-040J","RCS_SIZE":"LARGE","SITE":"AFETR","REF_FRAME":"TEME","LAUNCH_DATE":"2021-05-09","CENTER_NAME":"EARTH","TLE_LINE1":"1 48436U 21040J   22341.81747816 -.00001066  00000-0 -52651-4 0  9994","INCLINATION":"53.0542","MEAN_ANOMALY":"296.5232","ARG_OF_PERICENTER":"63.5928","OBJECT_TYPE":"PAYLOAD","DECAY_DATE":null,"OBJECT_NAME":"STARLINK-2639","SEMIMAJOR_AXIS":"6925.340","FILE":"3684212","TLE_LINE2":"2 48436  53.0542 114.1923 0001676  63.5928 296.5232 15.06402683 87582","RA_OF_ASC_NODE":"114.1923","ELEMENT_SET_NO":"999","TIME_SYSTEM":"UTC","COUNTRY_CODE":"US","NORAD_CAT_ID":"48436","APOAPSIS":"548.366","MEAN_MOTION":"15.06402683","BSTAR":"-0.00005265100000","REV_AT_EPOCH":"8758","PERIAPSIS":"546.045","MEAN_ELEMENT_THEORY":"SGP4","EPOCH":"2022-12-07T19:37:10.113024","MEAN_MOTION_DOT":"-0.00001066","PERIOD":"95.592","EPHEMERIS_TYPE":"0","GP_ID":"219739378"},{"PERIOD":"95.592","EPHEMERIS_TYPE":"0","GP_ID":"219739628","REV_AT_EPOCH":"8744","PERIAPSIS":"545.953","BSTAR":"0.00000976510000","EPOCH":"2022-12-07T19:14:36.055680","MEAN_MOTION_DOT":"-0.00000136","MEAN_ELEMENT_THEORY":"SGP4","TIME_SYSTEM":"UTC","COUNTRY_CODE":"US","MEAN_MOTION":"15.06402469","NORAD_CAT_ID":"48437","APOAPSIS":"548.459","SEMIMAJOR_AXIS":"6925.341","DECAY_DATE":null,"OBJECT_NAME":"STARLINK-2642","TLE_LINE2":"2 48437  53.0557 124.2687 0001809  62.8598 297.2576 15.06402469 87447","RA_OF_ASC_NODE":"124.2687","ELEMENT_SET_NO":"999","FILE":"3684212","OBJECT_TYPE":"PAYLOAD","MEAN_ANOMALY":"297.2576","ARG_OF_PERICENTER":"62.8598","INCLINATION":"53.0557","LAUNCH_DATE":"2021-05-09","CENTER_NAME":"EARTH","REF_FRAME":"TEME","TLE_LINE1":"1 48437U 21040K   22341.80180620 -.00000136  00000-0  97651-5 0  9994","MEAN_MOTION_DDOT":"0.0000000000000","OBJECT_ID":"2021-040K","ECCENTRICITY":"0.00018090","CLASSIFICATION_TYPE":"U","SITE":"AFETR","RCS_SIZE":"LARGE"},{"MEAN_MOTION":"15.06398554","NORAD_CAT_ID":"48438","APOAPSIS":"548.438","TIME_SYSTEM":"UTC","COUNTRY_CODE":"US","TLE_LINE2":"2 48438  53.0546 114.1967 0001761  56.0053 304.1103 15.06398554 87581","RA_OF_ASC_NODE":"114.1967","ELEMENT_SET_NO":"999","FILE":"3684212","SEMIMAJOR_AXIS":"6925.353","OBJECT_NAME":"STARLINK-2640","DECAY_DATE":null,"EPHEMERIS_TYPE":"0","GP_ID":"219740880","PERIOD":"95.592","EPOCH":"2022-12-07T19:31:51.345408","MEAN_MOTION_DOT":"0.00000184","MEAN_ELEMENT_THEORY":"SGP4","REV_AT_EPOCH":"8758","PERIAPSIS":"545.998","BSTAR":"0.00003125700000","TLE_LINE1":"1 48438U 21040L   22341.81378872  .00000184  00000-0  31257-4 0  9995","LAUNCH_DATE":"2021-05-09","CENTER_NAME":"EARTH","REF_FRAME":"TEME","SITE":"AFETR","RCS_SIZE":"LARGE","MEAN_MOTION_DDOT":"0.0000000000000","OBJECT_ID":"2021-040L","ECCENTRICITY":"0.00017610","CLASSIFICATION_TYPE":"U","OBJECT_TYPE":"PAYLOAD","MEAN_ANOMALY":"304.1103","ARG_OF_PERICENTER":"56.0053","INCLINATION":"53.0546"},{"INCLINATION":"53.0539","OBJECT_TYPE":"PAYLOAD","ARG_OF_PERICENTER":"66.3841","MEAN_ANOMALY":"293.7301","SITE":"AFETR","RCS_SIZE":"MEDIUM","OBJECT_ID":"2021-040M","MEAN_MOTION_DDOT":"0.0000000000000","CLASSIFICATION_TYPE":"U","ECCENTRICITY":"0.00014590","TLE_LINE1":"1 48439U 21040M   22341.81009836 -.00000325  00000-0 -29222-5 0  9996","CENTER_NAME":"EARTH","LAUNCH_DATE":"2021-05-09","REF_FRAME":"TEME","MEAN_MOTION_DOT":"-0.00000325","EPOCH":"2022-12-07T19:26:32.498304","MEAN_ELEMENT_THEORY":"SGP4","PERIAPSIS":"546.209","REV_AT_EPOCH":"8758","BSTAR":"-0.00000292220000","GP_ID":"219741129","EPHEMERIS_TYPE":"0","PERIOD":"95.592","RA_OF_ASC_NODE":"114.2099","ELEMENT_SET_NO":"999","TLE_LINE2":"2 48439  53.0539 114.2099 0001459  66.3841 293.7301 15.06398179 87580","FILE":"3684212","SEMIMAJOR_AXIS":"6925.354","OBJECT_NAME":"STARLINK-2583","DECAY_DATE":null,"MEAN_MOTION":"15.06398179","APOAPSIS":"548.230","NORAD_CAT_ID":"48439","COUNTRY_CODE":"US","TIME_SYSTEM":"UTC"},{"BSTAR":"0.00002686600000","REV_AT_EPOCH":"8756","PERIAPSIS":"546.172","MEAN_ELEMENT_THEORY":"SGP4","EPOCH":"2022-12-07T16:10:09.575616","MEAN_MOTION_DOT":"0.00000119","PERIOD":"95.592","EPHEMERIS_TYPE":"0","GP_ID":"219739879","DECAY_DATE":null,"OBJECT_NAME":"STARLINK-2682","SEMIMAJOR_AXIS":"6925.359","FILE":"3684212","TLE_LINE2":"2 48440  53.0541 114.8227 0001518  59.6742 300.4396 15.06396750 87566","RA_OF_ASC_NODE":"114.8227","ELEMENT_SET_NO":"999","TIME_SYSTEM":"UTC","COUNTRY_CODE":"US","NORAD_CAT_ID":"48440","APOAPSIS":"548.275","MEAN_MOTION":"15.06396750","INCLINATION":"53.0541","MEAN_ANOMALY":"300.4396","ARG_OF_PERICENTER":"59.6742","OBJECT_TYPE":"PAYLOAD","ECCENTRICITY":"0.00015180","CLASSIFICATION_TYPE":"U","OBJECT_ID":"2021-040N","MEAN_MOTION_DDOT":"0.0000000000000","RCS_SIZE":"LARGE","SITE":"AFETR","REF_FRAME":"TEME","LAUNCH_DATE":"2021-05-09","CENTER_NAME":"EARTH","TLE_LINE1":"1 48440U 21040N   22341.67372194  .00000119  00000-0  26866-4 0  9991"},{"TLE_LINE1":"1 48441U 21040P   22341.80273457  .00000288  00000-0  38236-4 0  9990","REF_FRAME":"TEME","CENTER_NAME":"EARTH","LAUNCH_DATE":"2021-05-09","RCS_SIZE":"LARGE","SITE":"AFETR","CLASSIFICATION_TYPE":"U","ECCENTRICITY":"0.00014180","OBJECT_ID":"2021-040P","MEAN_MOTION_DDOT":"0.0000000000000","ARG_OF_PERICENTER":"70.8585","MEAN_ANOMALY":"289.2557","OBJECT_TYPE":"PAYLOAD","INCLINATION":"53.0555","APOAPSIS":"548.223","NORAD_CAT_ID":"48441","MEAN_MOTION":"15.06391120","COUNTRY_CODE":"US","TIME_SYSTEM":"UTC","FILE":"3684212","RA_OF_ASC_NODE":"114.2381","ELEMENT_SET_NO":"999","TLE_LINE2":"2 48441  53.0555 114.2381 0001418  70.8585 289.2557 15.06391120 87587","OBJECT_NAME":"STARLINK-2702","DECAY_DATE":null,"SEMIMAJOR_AXIS":"6925.376","GP_ID":"219740129","EPHEMERIS_TYPE":"0","PERIOD":"95.593","MEAN_ELEMENT_THEORY":"SGP4","MEAN_MOTION_DOT":"0.00000288","EPOCH":"2022-12-07T19:15:56.266848","BSTAR":"0.00003823600000","PERIAPSIS":"546.259","REV_AT_EPOCH":"8758"},{"TLE_LINE1":"1 48442U 21040Q   22341.79904618 -.00001292  00000-0 -67860-4 0  9992","REF_FRAME":"TEME","CENTER_NAME":"EARTH","LAUNCH_DATE":"2021-05-09","RCS_SIZE":"LARGE","SITE":"AFETR","CLASSIFICATION_TYPE":"U","ECCENTRICITY":"0.00014370","OBJECT_ID":"2021-040Q","MEAN_MOTION_DDOT":"0.0000000000000","ARG_OF_PERICENTER":"76.4721","MEAN_ANOMALY":"283.6428","OBJECT_TYPE":"PAYLOAD","INCLINATION":"53.0554","APOAPSIS":"548.201","NORAD_CAT_ID":"48442","MEAN_MOTION":"15.06402501","COUNTRY_CODE":"US","TIME_SYSTEM":"UTC","FILE":"3684212","RA_OF_ASC_NODE":"114.2786","ELEMENT_SET_NO":"999","TLE_LINE2":"2 48442  53.0554 114.2786 0001437  76.4721 283.6428 15.06402501 87582","DECAY_DATE":null,"OBJECT_NAME":"STARLINK-2644","SEMIMAJOR_AXIS":"6925.341","GP_ID":"219740380","EPHEMERIS_TYPE":"0","PERIOD":"95.592","MEAN_ELEMENT_THEORY":"SGP4","MEAN_MOTION_DOT":"-0.00001292","EPOCH":"2022-12-07T19:10:37.589952","BSTAR":"-0.00006786000000","PERIAPSIS":"546.211","REV_AT_EPOCH":"8758"},{"GP_ID":"219740629","EPHEMERIS_TYPE":"0","PERIOD":"95.592","MEAN_MOTION_DOT":"0.00001380","EPOCH":"2022-12-07T15:54:14.301792","MEAN_ELEMENT_THEORY":"SGP4","PERIAPSIS":"546.317","REV_AT_EPOCH":"8756","BSTAR":"0.00011150000000","MEAN_MOTION":"15.06402498","APOAPSIS":"548.095","NORAD_CAT_ID":"48443","COUNTRY_CODE":"US","TIME_SYSTEM":"UTC","ELEMENT_SET_NO":"999","RA_OF_ASC_NODE":"114.8855","TLE_LINE2":"2 48443  53.0527 114.8855 0001284  73.0961 287.0168 15.06402498 87567","FILE":"3684212","SEMIMAJOR_AXIS":"6925.341","DECAY_DATE":null,"OBJECT_NAME":"STARLINK-2663","OBJECT_TYPE":"PAYLOAD","ARG_OF_PERICENTER":"73.0961","MEAN_ANOMALY":"287.0168","INCLINATION":"53.0527","TLE_LINE1":"1 48443U 21040R   22341.66266553  .00001380  00000-0  11150-3 0  9994","CENTER_NAME":"EARTH","LAUNCH_DATE":"2021-05-09","REF_FRAME":"TEME","SITE":"AFETR","RCS_SIZE":"LARGE","OBJECT_ID":"2021-040R","MEAN_MOTION_DDOT":"0.0000000000000","CLASSIFICATION_TYPE":"U","ECCENTRICITY":"0.00012840"}];
